STARLINK-35775          
1 67038U 25294J   26065.04063652  .00032801  00000+0  11956-2 0  9998
2 67038  43.0045  58.4670 0001989 282.8329  77.2300 15.27594286 14253
STARLINK-35705          
1 67039U 25294K   26065.04577537  .00021480  00000+0  78763-3 0  9992
2 67039  43.0026  58.4988 0001294 251.9584 108.1127 15.27588003 14244
STARLINK-35786          
1 67040U 25294L   26065.00739633  .00032884  00000+0  12006-2 0  9994
2 67040  42.9980  59.0746 0001151 251.7167 108.3559 15.27540890 14231
STARLINK-35765          
1 67041U 25294M   26064.40732976  .00038261  00000+0  13929-2 0  9991
2 67041  43.0000  62.3076 0000913 296.4178  63.6580 15.27574775 14149
STARLINK-35773          
1 67042U 25294N   26065.25478607  .00028249  00000+0  10318-2 0  9998
2 67042  43.0024  57.4942 0000993 275.2390  84.8348 15.27590055 14272
STARLINK-35901          
1 67043U 25294P   26065.26249167  .00023514  00000+0  86098-3 0  9996
2 67043  43.0053  57.5472 0001992 273.7164  86.3460 15.27590537 14273
STARLINK-35884          
1 67044U 25294Q   26065.02778185  .00021528  00000+0  78945-3 0  9993
2 67044  42.9958  58.3645 0001630 155.8812 204.2116 15.27582961 14244
STARLINK-35891          
1 67045U 25294R   26065.27534416  .00027284  00000+0  99687-3 0  9999
2 67045  43.0032  57.6426 0001503 261.7338  98.3343 15.27595809 14270
STARLINK-35721          
1 67046U 25294S   26065.00608464  .00036509  00000+0  13288-2 0  9998
2 67046  42.9987  59.0576 0000987 260.3717  99.7023 15.27602518 14233
STARLINK-35779          
1 67047U 25294T   26065.31246150  .00025179  00000+0  92100-3 0  9995
2 67047  43.0032  57.0666 0001542 262.2780  97.7897 15.27593169 14287
STARLINK-35905          
1 67048U 25294U   26065.06248100  .00024407  00000+0  89327-3 0  9995
2 67048  42.9962  58.6249 0000819 271.6412  88.4345 15.27588383 14247
STARLINK-35877          
1 67049U 25294V   26065.27277462  .00024220  00000+0  88652-3 0  9995
2 67049  42.9998  57.6252 0001100 276.9427  83.1299 15.27589340 14275
STARLINK-36078          
1 67050U 25294W   26065.03934725  .00022534  00000+0  82544-3 0  9993
2 67050  43.0069  58.4536 0001442 265.2318  94.8369 15.27597326 14248
STARLINK-35706          
1 67051U 25294X   26065.05734051  .00022436  00000+0  82215-3 0  9992
2 67051  43.0001  58.5831 0001407 269.2011  90.8680 15.27588489 14241
STARLINK-35720          
1 67052U 25294Y   26065.31117433  .00026117  00000+0  95480-3 0  9999
2 67052  43.0029  57.0504 0001536 276.8627  83.2050 15.27595157 14284
STARLINK-35739          
1 67053U 25294Z   26065.26377676  .00030240  00000+0  11035-2 0  9996
2 67053  43.0021  57.5513 0001553 276.0277  84.0398 15.27592450 14270
