[{"OBJECT_NAME":"STARLINK-35775","OBJECT_ID":"2025-294J","EPOCH":"2026-03-06T00:58:30.995328","MEAN_MOTION":15.27594286,"ECCENTRICITY":0.00019892,"INCLINATION":43.0045,"RA_OF_ASC_NODE":58.467,"ARG_OF_PERICENTER":282.8329,"MEAN_ANOMALY":77.23,"EPHEMERIS_TYPE":0,"CLASSIFICATION_TYPE":"U","NORAD_CAT_ID":67038,"ELEMENT_SET_NO":999,"REV_AT_EPOCH":1425,"BSTAR":0.001195642,"MEAN_MOTION_DOT":0.00032801,"MEAN_MOTION_DDOT":0},{"OBJECT_NAME":"STARLINK-35705","OBJECT_ID":"2025-294K","EPOCH":"2026-03-06T01:05:54.991968","MEAN_MOTION":15.27588003,"ECCENTRICITY":0.0001294,"INCLINATION":43.0026,"RA_OF_ASC_NODE":58.4988,"ARG_OF_PERICENTER":251.9584,"MEAN_ANOMALY":108.1127,"EPHEMERIS_TYPE":0,"CLASSIFICATION_TYPE":"U","NORAD_CAT_ID":67039,"ELEMENT_SET_NO":999,"REV_AT_EPOCH":1424,"BSTAR":0.00078763468,"MEAN_MOTION_DOT":0.0002148,"MEAN_MOTION_DDOT":0},{"OBJECT_NAME":"STARLINK-35786","OBJECT_ID":"2025-294L","EPOCH":"2026-03-06T00:10:39.042912","MEAN_MOTION":15.2754089,"ECCENTRICITY":0.00011513,"INCLINATION":42.998,"RA_OF_ASC_NODE":59.0746,"ARG_OF_PERICENTER":251.7167,"MEAN_ANOMALY":108.3559,"EPHEMERIS_TYPE":0,"CLASSIFICATION_TYPE":"U","NORAD_CAT_ID":67040,"ELEMENT_SET_NO":999,"REV_AT_EPOCH":1423,"BSTAR":0.0012005962,"MEAN_MOTION_DOT":0.00032884,"MEAN_MOTION_DDOT":0},{"OBJECT_NAME":"STARLINK-35765","OBJECT_ID":"2025-294M","EPOCH":"2026-03-05T09:46:33.291264","MEAN_MOTION":15.27574775,"ECCENTRICITY":9.13e-5,"INCLINATION":43,"RA_OF_ASC_NODE":62.3076,"ARG_OF_PERICENTER":296.4178,"MEAN_ANOMALY":63.658,"EPHEMERIS_TYPE":0,"CLASSIFICATION_TYPE":"U","NORAD_CAT_ID":67041,"ELEMENT_SET_NO":999,"REV_AT_EPOCH":1414,"BSTAR":0.0013929,"MEAN_MOTION_DOT":0.00038261,"MEAN_MOTION_DDOT":0},{"OBJECT_NAME":"STARLINK-35773","OBJECT_ID":"2025-294N","EPOCH":"2026-03-06T06:06:53.516448","MEAN_MOTION":15.27590055,"ECCENTRICITY":9.931e-5,"INCLINATION":43.0024,"RA_OF_ASC_NODE":57.4942,"ARG_OF_PERICENTER":275.239,"MEAN_ANOMALY":84.8348,"EPHEMERIS_TYPE":0,"CLASSIFICATION_TYPE":"U","NORAD_CAT_ID":67042,"ELEMENT_SET_NO":999,"REV_AT_EPOCH":1427,"BSTAR":0.001031816,"MEAN_MOTION_DOT":0.00028249,"MEAN_MOTION_DDOT":0},{"OBJECT_NAME":"STARLINK-35901","OBJECT_ID":"2025-294P","EPOCH":"2026-03-06T06:17:59.280288","MEAN_MOTION":15.27590537,"ECCENTRICITY":0.00019925,"INCLINATION":43.0053,"RA_OF_ASC_NODE":57.5472,"ARG_OF_PERICENTER":273.7164,"MEAN_ANOMALY":86.346,"EPHEMERIS_TYPE":0,"CLASSIFICATION_TYPE":"U","NORAD_CAT_ID":67043,"ELEMENT_SET_NO":999,"REV_AT_EPOCH":1427,"BSTAR":0.00086098211,"MEAN_MOTION_DOT":0.00023514,"MEAN_MOTION_DDOT":0},{"OBJECT_NAME":"STARLINK-35884","OBJECT_ID":"2025-294Q","EPOCH":"2026-03-06T00:40:00.351840","MEAN_MOTION":15.27582961,"ECCENTRICITY":0.00016303,"INCLINATION":42.9958,"RA_OF_ASC_NODE":58.3645,"ARG_OF_PERICENTER":155.8812,"MEAN_ANOMALY":204.2116,"EPHEMERIS_TYPE":0,"CLASSIFICATION_TYPE":"U","NORAD_CAT_ID":67044,"ELEMENT_SET_NO":999,"REV_AT_EPOCH":1424,"BSTAR":0.00078945237,"MEAN_MOTION_DOT":0.00021528,"MEAN_MOTION_DDOT":0},{"OBJECT_NAME":"STARLINK-35891","OBJECT_ID":"2025-294R","EPOCH":"2026-03-06T06:36:29.735424","MEAN_MOTION":15.27595809,"ECCENTRICITY":0.00015034,"INCLINATION":43.0032,"RA_OF_ASC_NODE":57.6426,"ARG_OF_PERICENTER":261.7338,"MEAN_ANOMALY":98.3343,"EPHEMERIS_TYPE":0,"CLASSIFICATION_TYPE":"U","NORAD_CAT_ID":67045,"ELEMENT_SET_NO":999,"REV_AT_EPOCH":1427,"BSTAR":0.00099687474,"MEAN_MOTION_DOT":0.00027284,"MEAN_MOTION_DDOT":0},{"OBJECT_NAME":"STARLINK-35721","OBJECT_ID":"2025-294S","EPOCH":"2026-03-06T00:08:45.712896","MEAN_MOTION":15.27602518,"ECCENTRICITY":9.87e-5,"INCLINATION":42.9987,"RA_OF_ASC_NODE":59.0576,"ARG_OF_PERICENTER":260.3717,"MEAN_ANOMALY":99.7023,"EPHEMERIS_TYPE":0,"CLASSIFICATION_TYPE":"U","NORAD_CAT_ID":67046,"ELEMENT_SET_NO":999,"REV_AT_EPOCH":1423,"BSTAR":0.0013287858,"MEAN_MOTION_DOT":0.00036509,"MEAN_MOTION_DDOT":0},{"OBJECT_NAME":"STARLINK-35779","OBJECT_ID":"2025-294T","EPOCH":"2026-03-06T07:29:56.673600","MEAN_MOTION":15.27593169,"ECCENTRICITY":0.00015428,"INCLINATION":43.0032,"RA_OF_ASC_NODE":57.0666,"ARG_OF_PERICENTER":262.278,"MEAN_ANOMALY":97.7897,"EPHEMERIS_TYPE":0,"CLASSIFICATION_TYPE":"U","NORAD_CAT_ID":67047,"ELEMENT_SET_NO":999,"REV_AT_EPOCH":1428,"BSTAR":0.00092100023,"MEAN_MOTION_DOT":0.00025179,"MEAN_MOTION_DDOT":0},{"OBJECT_NAME":"STARLINK-35905","OBJECT_ID":"2025-294U","EPOCH":"2026-03-06T01:29:58.358400","MEAN_MOTION":15.27588383,"ECCENTRICITY":8.191e-5,"INCLINATION":42.9962,"RA_OF_ASC_NODE":58.6249,"ARG_OF_PERICENTER":271.6412,"MEAN_ANOMALY":88.4345,"EPHEMERIS_TYPE":0,"CLASSIFICATION_TYPE":"U","NORAD_CAT_ID":67048,"ELEMENT_SET_NO":999,"REV_AT_EPOCH":1424,"BSTAR":0.00089327186,"MEAN_MOTION_DOT":0.00024407,"MEAN_MOTION_DDOT":0},{"OBJECT_NAME":"STARLINK-35877","OBJECT_ID":"2025-294V","EPOCH":"2026-03-06T06:32:47.727168","MEAN_MOTION":15.2758934,"ECCENTRICITY":0.00011009,"INCLINATION":42.9998,"RA_OF_ASC_NODE":57.6252,"ARG_OF_PERICENTER":276.9427,"MEAN_ANOMALY":83.1299,"EPHEMERIS_TYPE":0,"CLASSIFICATION_TYPE":"U","NORAD_CAT_ID":67049,"ELEMENT_SET_NO":999,"REV_AT_EPOCH":1427,"BSTAR":0.00088651535,"MEAN_MOTION_DOT":0.0002422,"MEAN_MOTION_DDOT":0},{"OBJECT_NAME":"STARLINK-36078","OBJECT_ID":"2025-294W","EPOCH":"2026-03-06T00:56:39.602400","MEAN_MOTION":15.27597326,"ECCENTRICITY":0.00014427,"INCLINATION":43.0069,"RA_OF_ASC_NODE":58.4536,"ARG_OF_PERICENTER":265.2318,"MEAN_ANOMALY":94.8369,"EPHEMERIS_TYPE":0,"CLASSIFICATION_TYPE":"U","NORAD_CAT_ID":67050,"ELEMENT_SET_NO":999,"REV_AT_EPOCH":1424,"BSTAR":0.00082544321,"MEAN_MOTION_DOT":0.00022534,"MEAN_MOTION_DDOT":0},{"OBJECT_NAME":"STARLINK-35706","OBJECT_ID":"2025-294X","EPOCH":"2026-03-06T01:22:34.220064","MEAN_MOTION":15.27588489,"ECCENTRICITY":0.00014078,"INCLINATION":43.0001,"RA_OF_ASC_NODE":58.5831,"ARG_OF_PERICENTER":269.2011,"MEAN_ANOMALY":90.868,"EPHEMERIS_TYPE":0,"CLASSIFICATION_TYPE":"U","NORAD_CAT_ID":67051,"ELEMENT_SET_NO":999,"REV_AT_EPOCH":1424,"BSTAR":0.00082214719,"MEAN_MOTION_DOT":0.00022436,"MEAN_MOTION_DDOT":0},{"OBJECT_NAME":"STARLINK-35720","OBJECT_ID":"2025-294Y","EPOCH":"2026-03-06T07:28:05.462112","MEAN_MOTION":15.27595157,"ECCENTRICITY":0.00015364,"INCLINATION":43.0029,"RA_OF_ASC_NODE":57.0504,"ARG_OF_PERICENTER":276.8627,"MEAN_ANOMALY":83.205,"EPHEMERIS_TYPE":0,"CLASSIFICATION_TYPE":"U","NORAD_CAT_ID":67052,"ELEMENT_SET_NO":999,"REV_AT_EPOCH":1428,"BSTAR":0.00095479869,"MEAN_MOTION_DOT":0.00026117,"MEAN_MOTION_DDOT":0},{"OBJECT_NAME":"STARLINK-35739","OBJECT_ID":"2025-294Z","EPOCH":"2026-03-06T06:19:50.312064","MEAN_MOTION":15.2759245,"ECCENTRICITY":0.00015534,"INCLINATION":43.0021,"RA_OF_ASC_NODE":57.5513,"ARG_OF_PERICENTER":276.0277,"MEAN_ANOMALY":84.0398,"EPHEMERIS_TYPE":0,"CLASSIFICATION_TYPE":"U","NORAD_CAT_ID":67053,"ELEMENT_SET_NO":999,"REV_AT_EPOCH":1427,"BSTAR":0.0011034818,"MEAN_MOTION_DOT":0.0003024,"MEAN_MOTION_DDOT":0}]
